[{"OBJECT_NAME":"YAOGAN-16 01B","OBJECT_ID":"2012-066B","EPOCH":"2026-03-09T16:02:29.918976","MEAN_MOTION":13.45502016,"ECCENTRICITY":0.04276845,"INCLINATION":63.3552,"RA_OF_ASC_NODE":187.0386,"ARG_OF_PERICENTER":26.0287,"MEAN_ANOMALY":336.1576,"EPHEMERIS_TYPE":0,"CLASSIFICATION_TYPE":"U","NORAD_CAT_ID":39012,"ELEMENT_SET_NO":999,"REV_AT_EPOCH":65271,"BSTAR":5.0682079e-5,"MEAN_MOTION_DOT":-3.9e-7,"MEAN_MOTION_DDOT":0},{"OBJECT_NAME":"SSU 2","OBJECT_ID":"1976-038D","EPOCH":"2026-03-09T15:32:58.814016","MEAN_MOTION":13.82904247,"ECCENTRICITY":0.03924172,"INCLINATION":63.3606,"RA_OF_ASC_NODE":178.7393,"ARG_OF_PERICENTER":178.8973,"MEAN_ANOMALY":181.3034,"EPHEMERIS_TYPE":0,"CLASSIFICATION_TYPE":"U","NORAD_CAT_ID":8836,"ELEMENT_SET_NO":999,"REV_AT_EPOCH":33751,"BSTAR":0.00023479214,"MEAN_MOTION_DOT":3.57e-6,"MEAN_MOTION_DDOT":0}]
